CCSDS_OEM_VERS = 2.0  
CREATION_DATE  = 2026-03-24T10:47:17
ORIGINATOR     = ESOC/OPS-GFA                            
 
 



META_START
OBJECT_NAME          = LISA                                    
OBJECT_ID            = -1000                                   
CENTER_NAME          = SUN                     
REF_FRAME            = EME2000 
TIME_SYSTEM          = TCB
START_TIME           = 2036-12-23T00:00:30.346418            
STOP_TIME            = 2047-09-06T16:26:23.998695            
INTERPOLATION        = HERMITE                                 
INTERPOLATION_DEGREE = 7                                       
META_STOP

2044-12-16T12:48:28.709662     6.84933143311606348e+07    1.22504531393359154e+08    5.44660066762308776e+07   -2.63741300750182504e+01    1.23696750105360422e+01    5.36267678709325857e+00   -2.66405575382249900e-06   -4.76454309676744438e-06   -2.11834107683706764e-06
2044-12-17T09:05:33.246586     6.65603193089372963e+07    1.23395086621962190e+08    5.48519521578786969e+07   -2.65659290392560976e+01    1.20204772401681055e+01    5.20743581543158918e+00   -2.58885552566059615e-06   -4.79914159968336178e-06   -2.13333470996299683e-06
2044-12-18T05:22:37.783511     6.46135192220164686e+07    1.24260050382910058e+08    5.52265216123135462e+07   -2.67522171615409086e+01    1.16687887290220758e+01    5.05111585453508560e+00   -2.51312700618291851e-06   -4.83275851162844728e-06   -2.14789200370546972e-06
2044-12-19T01:39:42.320436     6.26533178882661164e+07    1.25099243403324723e+08    5.55896374080183133e+07   -2.69329564109532456e+01    1.13146814033453147e+01    4.89374887441809392e+00   -2.43688519541775675e-06   -4.86538711623079815e-06   -2.16201004995420733e-06
2044-12-19T21:56:46.857360     6.06801218833003044e+07    1.25912491795866147e+08    5.59412243068432808e+07   -2.71081098539880045e+01    1.09582276753556513e+01    4.73536705546558778e+00   -2.36014514639667626e-06   -4.89702081636751234e-06   -2.17568599353228873e-06
2044-12-20T18:17:15.666789     5.86887683234061301e+07    1.26701792004267529e+08    5.62821441084299013e+07   -2.72781079849182575e+01    1.05984938257552308e+01    4.57555563812731414e+00   -2.28270561811742717e-06   -4.92773791344557072e-06   -2.18895363968235893e-06
2044-12-21T14:37:44.476218     5.66851740633155107e+07    1.27464667890075490e+08    5.66113259446087629e+07   -2.74424180010615153e+01    1.02365476495472691e+01    4.41478910543480474e+00   -2.20479590293354403e-06   -4.95744212759718638e-06   -2.20177134748058338e-06
2044-12-22T10:58:13.285646     5.46697568780214712e+07    1.28200960196969926e+08    5.69287010947448313e+07   -2.76010060408042932e+01    9.87246353524917453e+00    4.25310049915239308e+00   -2.12643156906536865e-06   -4.98612757239045854e-06   -2.21413657778694202e-06
2044-12-23T07:18:42.095075     5.26429369851304814e+07    1.28910515074488118e+08    5.72342032392902151e+07   -2.77538393850988818e+01    9.50631629744330198e+00    4.09052304476764306e+00   -2.04762825456802569e-06   -5.01378850173785111e-06   -2.22604685374028347e-06
2044-12-24T03:39:10.904505     5.06051369578347281e+07    1.29593184158420891e+08    5.75277684949854985e+07   -2.79008864627505702e+01    9.13818116568261729e+00    3.92709014656808586e+00   -1.96840167177499565e-06   -5.04041933144330314e-06   -2.23749977032112203e-06
2044-12-24T23:59:39.713933     4.85567816389141455e+07    1.30248824626673222e+08    5.78093354392127320e+07   -2.80421168559765981e+01    8.76813377197132837e+00    3.76283538208558976e+00   -1.88876761033124711e-06   -5.06601465666318538e-06   -2.24849300209948103e-06
2044-12-25T20:20:08.523363     4.64982980554335415e+07    1.30877299235749066e+08    5.80788451257811040e+07   -2.81775013061356638e+01    8.39625013711626167e+00    3.59779249603970985e+00   -1.80874193881741922e-06   -5.09056926528794188e-06   -2.25902430917126358e-06
2044-12-26T16:40:37.332791     4.44301153338175938e+07    1.31478476343010888e+08    5.83362410944219679e+07   -2.83070117195246240e+01    8.02260665624803870e+00    3.43199539391279895e+00   -1.72834060496048300e-06   -5.11407814723353748e-06   -2.26909154127803023e-06
2044-12-27T13:01:06.142220     4.23526646149866283e+07    1.32052229919864222e+08    5.85814693762702942e+07   -2.84306211731391159e+01    7.64728008381096913e+00    3.26547813528968245e+00   -1.64757963443880069e-06   -5.13653649966199714e-06   -2.27869264011888518e-06
2044-12-28T09:21:34.951649     4.02663789692361578e+07    1.32598439561017588e+08    5.88144784976092204e+07   -2.85483039202948063e+01    7.27034751832071269e+00    3.09827492709465613e+00   -1.56647512826884078e-06   -5.15793972809949450e-06   -2.28782563984045815e-06
2044-12-29T05:42:03.761078     3.81716933105428368e+07    1.33116990494968265e+08    5.90352194841546938e+07   -2.86600353960059557e+01    6.89188638718869484e+00    2.93042011685862480e+00   -1.48504325879051359e-06   -5.17828344349646995e-06   -2.29648866572463057e-06
2044-12-30T02:02:32.570507     3.60690443099799827e+07    1.33607773600864187e+08    5.92436458681569993e+07   -2.87657922220180495e+01    6.51197443191223790e+00    2.76194818614914483e+00   -1.40330026423937032e-06   -5.19756345519173957e-06   -2.30467993105730038e-06
2044-12-30T22:23:01.379936     3.39588703079254627e+07    1.34070685436892495e+08    5.94397137005959824e+07   -2.88655522113911402e+01    6.13068969392946350e+00    2.59289374429616792e+00   -1.32126244189277905e-06   -5.21577575976636401e-06   -2.31239773217167908e-06
2044-12-31T18:43:30.189365     3.18416112247444764e+07    1.34505628285345048e+08    5.96233815707470104e+07   -2.89592943725306569e+01    5.74811050143787483e+00    2.42329152254626257e+00   -1.23894613983995078e-06   -5.23291652588756350e-06   -2.31964044171065963e-06
2045-01-01T15:03:58.998794     2.97177084696312100e+07    1.34912510219511181e+08    5.97946106353942528e+07   -2.90469989125623265e+01    5.36431545747573502e+00    2.25317636877812344e+00   -1.15636774731082790e-06   -5.24898207500136239e-06   -2.32640650004578398e-06
2045-01-02T11:24:27.808223     2.75876048472904041e+07    1.35291245197548270e+08    5.99533646599684134e+07   -2.91286472399480338e+01    4.97938342956509317e+00    2.08258324291211183e+00   -1.07354368358178663e-06   -5.26396885791626256e-06   -2.33269440487114517e-06
2045-01-03T07:42:30.976146     2.54559978343129344e+07    1.35641083861956447e+08    6.00993315239690542e+07   -2.92040777041801221e+01    4.59416219810213988e+00    1.91188778713320406e+00   -9.90655992538031858e-07   -5.27784742853577565e-06   -2.33849188116719691e-06
2045-01-04T04:00:34.144069     2.33190996739278138e+07    1.35962733250712156e+08    6.02328083732207268e+07   -2.92734426367179204e+01    4.20796614585778350e+00    1.74078612302030455e+00   -9.07556592001306212e-07   -5.29064542133143226e-06   -2.34381054238840042e-06
2045-01-05T00:18:37.311992     2.11773541924943328e+07    1.36256125035304457e+08    6.03537668120319992e+07   -2.93367271689155658e+01    3.82087434473976284e+00    1.56931328557984084e+00   -8.24262011034381636e-07   -5.30236012685580126e-06   -2.34864925812158947e-06
2045-01-05T20:36:40.479915     1.90312062776587158e+07    1.36521196619361490e+08    6.04621809844267070e+07   -2.93939176415842880e+01    3.43296605925530063e+00    1.39750439003109062e+00   -7.40788818591882435e-07   -5.31298898782236964e-06   -2.35300696541952941e-06
2045-01-06T16:54:43.647838     1.68811017744781859e+07    1.36757891199148357e+08    6.05580276004751921e+07   -2.94450016078788508e+01    3.04432073459012997e+00    1.22539462652155562e+00   -6.57153622633464219e-07   -5.32252962023671919e-06   -2.35688267814414584e-06
2045-01-07T13:12:46.815762     1.47274873885949440e+07    1.36966157800767094e+08    6.06412859523498416e+07   -2.94899678361042064e+01    2.65501798329585625e+00    1.05301925422711706e+00   -5.73373068857443634e-07   -5.33097983044647972e-06   -2.36027549450275971e-06
2045-01-08T09:30:49.983685     1.25708105948544666e+07    1.37145951298931777e+08    6.07119379222534224e+07   -2.95288063124156999e+01    2.26513757088023882e+00    8.80413594967352608e-01   -4.89463839054364738e-07   -5.33833762811642289e-06   -2.36318460278057213e-06
2045-01-09T05:48:53.151608     1.04115195497821569e+07    1.37297232422185451e+08    6.07699679843666703e+07   -2.95615082433850276e+01    1.87475940059841228e+00    7.07613026467971862e-01   -4.05442649078913914e-07   -5.34460123511764607e-06   -2.36560928526417853e-06
2045-01-10T02:06:56.319531     8.25006300633240491e+06    1.37419967749427080e+08    6.08153632029612735e+07   -2.95880660584041060e+01    1.48396349774315217e+00    5.34652975402325259e-01   -3.21326246442888296e-07   -5.34976909035046698e-06   -2.36754892036506124e-06
2045-01-10T22:24:59.487454     6.08689022932405025e+06    1.37514129702614695e+08    6.08481132288247198e+07   -2.96084734118990411e+01    1.09282999373224055e+00    3.61568910343946559e-01   -2.37131407525614862e-07   -5.35383985047116104e-06   -2.36900298292960862e-06
2045-01-11T18:43:02.655377     3.92245090997638181e+06    1.37579696540513098e+08    6.08682102961431444e+07   -2.96227251853264164e+01    7.01439110291003587e-01    1.88396334762072293e-01   -1.52874934404965469e-07   -5.35681238656123888e-06   -2.36997104275285088e-06
2045-01-12T15:01:05.823301     1.75719507795976102e+06    1.37616652358352482e+08    6.08756492219886333e+07   -2.96308174889240128e+01    3.09871144028086576e-01    1.51707801921192598e-02   -6.85736513083021062e-08   -5.35868577670366935e-06   -2.37045276128050646e-06
2045-01-13T11:19:08.991224    -4.08426990625377744e+05    1.37624987098266035e+08    6.08704274105572030e+07   -2.96327476631882227e+01   -8.17935482974334604e-02   -1.58072200286956566e-01    1.57555993220081612e-08   -5.35945929446119846e-06   -2.37044788649632876e-06
